GLOBALSTAR M004         
1 25163U 98008B   25039.10985845 -.00000086  00000+0  96911-4 0  9995
2 25163  51.9999  87.9338 0002806  12.8210   5.4030 12.63387452245474
GLOBALSTAR M002         
1 25164U 98008C   25038.82095633 -.00000064  00000+0  24532-3 0  9996
2 25164  51.9982 204.5672 0000269 225.3790 134.7008 11.61507927169036
GLOBALSTAR M003         
1 25165U 98008D   25038.75251439  .00000010  00000+0  10646-2 0  9997
2 25165  51.9982 166.9947 0008164  37.7534 114.2096 12.12070068217522
GLOBALSTAR M014         
1 25306U 98023A   25038.98909117 -.00000095  00000+0 -32180-3 0  9992
2 25306  51.9831 130.0881 0001754 123.5766  46.9269 11.65478151176091
GLOBALSTAR M006         
1 25307U 98023B   25039.12893437 -.00000072  00000+0  79844-4 0  9990
2 25307  51.9919 177.3826 0003049 215.7523 315.5828 11.58172402201981
GLOBALSTAR M015         
1 25308U 98023C   25038.94314839 -.00000065  00000+0  19716-3 0  9997
2 25308  51.9808 270.3976 0012068 202.4899 258.5999 11.48857737179225
GLOBALSTAR M008         
1 25309U 98023D   25038.87192545 -.00000062  00000+0  26772-3 0  9995
2 25309  51.9941 212.9713 0001550 256.3241 252.5402 12.36062409221850
